QIANFAN-81              
1 63167U 25046J   26019.26100310  .00000206  00000+0  30071-3 0  9992
2 63167  88.9796 315.9947 0015914  18.5466 341.6262 13.51017529 52555
QIANFAN-82              
1 63168U 25046K   26019.29581035  .00000205  00000+0  29804-3 0  9994
2 63168  88.9796 316.0352 0014252  26.3859 333.8015 13.50990459 52544
QIANFAN-83              
1 63169U 25046L   26019.31371451  .00000236  00000+0  29017-3 0  9997
2 63169  88.9796 315.7360 0015051  10.6231 349.5242 13.61992929 52719
QIANFAN-84              
1 63170U 25046M   26019.17519871  .00000202  00000+0  29460-3 0  9998
2 63170  88.9796 316.1801 0017123  22.4196 337.7700 13.51000073 52457
QIANFAN-85              
1 63171U 25046N   26019.24630305  .00000192  00000+0  27789-3 0  9993
2 63171  88.9795 316.0445 0014589  25.2884 334.8978 13.50989223 52534
QIANFAN-86              
1 63172U 25046P   26019.25462435  .00000210  00000+0  30726-3 0  9998
2 63172  88.9798 315.9067 0012579  30.0978 330.0894 13.50991188 52618
QIANFAN-87              
1 63173U 25046Q   26019.30007916  .00000201  00000+0  29190-3 0  9997
2 63173  88.9793 316.0122 0013105  25.4950 334.6845 13.50988798 52554
QIANFAN-88              
1 63174U 25046R   26019.31623481  .00000197  00000+0  28708-3 0  9998
2 63174  88.9796 315.9660 0013686  32.3164 327.8823 13.50994976 52589
